IRIDIUM 36              
1 24967U 97056C   24198.37229238  .00000874  00000+0  28896-3 0  9999
2 24967  86.3984 314.0402 0002219  89.4127 270.7325 14.36892137403981
IRIDIUM 39              
1 25042U 97069D   24198.51598367  .00001268  00000+0  33519-3 0  9992
2 25042  86.3934 354.9957 0017858 353.7413   6.3564 14.48066332400369
IRIDIUM 38              
1 25043U 97069E   24198.57953551  .00000825  00000+0  27013-3 0  9999
2 25043  86.3964  14.3089 0003781 104.3010 255.8608 14.37337640397736
IRIDIUM 42              
1 25077U 97077A   24198.59754599  .00000776  00000+0  26255-3 0  9990
2 25077  86.3963  20.0563 0002584 100.5229 259.6258 14.35630387393037
IRIDIUM 44              
1 25078U 97077B   24198.54909624  .00000836  00000+0  26205-3 0  9999
2 25078  86.3969   2.9073 0003727  72.2154 287.9451 14.39477386395405
IRIDIUM 45              
1 25104U 97082A   24198.49752878  .00019077  00000+0  10344-2 0  9999
2 25104  86.3724 208.4813 0159016 131.8935 229.5992 15.04145783401261
IRIDIUM 24              
1 25105U 97082B   24198.60102539  .00000798  00000+0  24076-3 0  9994
2 25105  86.3906 222.4211 0013775 104.1695 256.1036 14.41263039394866
IRIDIUM 51              
1 25262U 98018A   24198.56549188  .00024849  00000+0  10984-2 0  9993
2 25262  86.3947 218.1789 0144391  75.0586 286.6588 15.12573121395856
